NORAD_CAT_ID,OBJECT_NAME,OBJECT_TYPE,EPOCH,MEAN_MOTION,ECCENTRICITY,INCLINATION,RA_OF_ASC_NODE,ARG_OF_PERICENTER,MEAN_ANOMALY,BSTAR,MEAN_MOTION_DOT,MEAN_MOTION_DDOT,TLE_LINE0,TLE_LINE1,TLE_LINE2,SEMIMAJOR_AXIS,PERIOD,APOGEE,PERIGEE,DECAYED
52458.0,STARLINK-3898,PAYLOAD,2023-07-07 13:51:01,15.08845586,0.0001336,53.2165,131.0612,83.9806,276.1339,5.8885e-05,6.49e-06,0.0,0 STARLINK-3898,1 52458U 22049H   23188.57710199  .00000649  00000-0  58885-4 0  9999,2 52458  53.2165 131.0612 0001336  83.9806 276.1339 15.08845586 64910,6917.863,95.437,540.653,538.804,0.0
52458.0,STARLINK-3898,PAYLOAD,2023-07-09 02:24:54,15.0883604,0.0001274,53.2166,124.2215,97.7874,262.3263,-3.0805e-05,-7.78e-06,0.0,0 STARLINK-3898,1 52458U 22049H   23190.10063154 -.00000778  00000-0 -30805-4 0  9990,2 52458  53.2166 124.2215 0001274  97.7874 262.3263 15.08836040 65147,6917.892,95.438,540.639,538.876,0.0
52458.0,STARLINK-3898,PAYLOAD,2023-07-10 11:48:00,15.0884051,0.00012,53.2171,117.9762,92.8365,267.2764,-1.3738e-05,-5.06e-06,0.0,0 STARLINK-3898,1 52458U 22049H   23191.49167095 -.00000506  00000-0 -13738-4 0  9997,2 52458  53.2171 117.9762 0001200  92.8365 267.2764 15.08840510 65359,6917.879,95.438,540.574,538.914,0.0
52458.0,STARLINK-3898,PAYLOAD,2023-07-11 03:41:51,15.08843978,0.0001119,53.2166,115.0043,94.4141,265.6979,0.00010909,1.449e-05,0.0,0 STARLINK-3898,1 52458U 22049H   23192.15406642  .00001449  00000-0  10909-3 0  9996,2 52458  53.2166 115.0043 0001119  94.4141 265.6979 15.08843978 65455,6917.868,95.437,540.507,538.959,0.0
52458.0,STARLINK-3898,PAYLOAD,2023-07-11 21:11:06,15.08833398,0.0001112,53.217,111.7336,92.0774,268.0345,6.9116e-07,-2.77e-06,0.0,0 STARLINK-3898,1 52458U 22049H   23192.88271837 -.00000277  00000-0  69116-6 0  9998,2 52458  53.2170 111.7336 0001112  92.0774 268.0345 15.08833398 65568,6917.901,95.438,540.535,538.996,0.0
52458.0,STARLINK-3898,PAYLOAD,2023-07-12 11:29:34,15.08840496,0.0001135,53.217,109.058,86.9102,273.202,4.8887e-05,4.9e-06,0.0,0 STARLINK-3898,1 52458U 22049H   23193.47887367  .00000490  00000-0  48887-4 0  9991,2 52458  53.2170 109.0580 0001135  86.9102 273.2020 15.08840496 65656,6917.879,95.438,540.529,538.959,0.0
52458.0,STARLINK-3898,PAYLOAD,2023-07-14 01:38:49,15.0884362,0.0001163,53.2174,101.9192,89.0058,271.1067,4.8846e-05,4.9e-06,0.0,0 STARLINK-3898,1 52458U 22049H   23195.06863262  .00000490  00000-0  48846-4 0  9991,2 52458  53.2174 101.9192 0001163  89.0058 271.1067 15.08843620 65891,6917.869,95.437,540.539,538.93,0.0
52458.0,STARLINK-3898,PAYLOAD,2023-07-14 23:54:13,15.08835041,0.0001054,53.2171,97.7562,91.6282,268.483,0.00013106,1.798e-05,0.0,0 STARLINK-3898,1 52458U 22049H   23195.99599488  .00001798  00000-0  13106-3 0  9991,2 52458  53.2171  97.7562 0001054  91.6282 268.4830 15.08835041 66030,6917.896,95.438,540.49,539.031,0.0
52458.0,STARLINK-3898,PAYLOAD,2023-07-16 23:35:47,15.08850529,0.0001267,53.2174,88.8353,82.3712,277.7424,-6.2278e-05,-1.279e-05,0.0,0 STARLINK-3898,1 52458U 22049H   23197.98319369 -.00001279  00000-0 -62278-4 0  9991,2 52458  53.2174  88.8353 0001267  82.3712 277.7424 15.08850529 66336,6917.848,95.437,540.59,538.837,0.0
52458.0,STARLINK-3898,PAYLOAD,2023-07-19 00:52:45,15.08840948,0.0001163,53.2175,79.6172,93.5714,266.5412,-4.9966e-09,-2.88e-06,0.0,0 STARLINK-3898,1 52458U 22049H   23200.03663824 -.00000288  00000-0 -49966-8 0  9992,2 52458  53.2175  79.6172 0001163  93.5714 266.5412 15.08840948 66646,6917.877,95.437,540.547,538.938,0.0
52458.0,STARLINK-3898,PAYLOAD,2023-07-19 18:22:00,15.08824682,0.0001159,53.2171,76.3479,99.0529,261.0594,1.9027e-05,1.5e-07,0.0,0 STARLINK-3898,1 52458U 22049H   23200.76528925  .00000015  00000-0  19027-4 0  9991,2 52458  53.2171  76.3479 0001159  99.0529 261.0594 15.08824682 66756,6917.927,95.439,540.594,538.99,0.0
52458.0,STARLINK-3898,PAYLOAD,2023-07-20 18:12:47,15.08837471,0.0001035,53.2173,71.888,95.7882,264.3228,4.4166e-05,4.15e-06,0.0,0 STARLINK-3898,1 52458U 22049H   23201.75888533  .00000415  00000-0  44166-4 0  9991,2 52458  53.2173  71.8880 0001035  95.7882 264.3228 15.08837471 66909,6917.888,95.438,540.469,539.037,0.0
52458.0,STARLINK-3898,PAYLOAD,2023-07-23 16:09:45,15.08829466,0.0001067,53.2171,58.8008,102.4593,257.6519,0.00010135,1.325e-05,0.0,0 STARLINK-3898,1 52458U 22049H   23204.67344889  .00001325  00000-0  10135-3 0  9995,2 52458  53.2171  58.8008 0001067 102.4593 257.6519 15.08829466 67188,6917.913,95.438,540.516,539.039,0.0
52458.0,STARLINK-3898,PAYLOAD,2023-07-25 12:40:33,15.0883199,0.0001502,53.2154,50.4755,109.1068,251.0087,4.1063e-05,3.65e-06,0.0,0 STARLINK-3898,1 52458U 22049H   23206.52817045  .00000365  00000-0  41063-4 0  9998,2 52458  53.2154  50.4755 0001502 109.1068 251.0087 15.08831990 67465,6917.905,95.438,540.809,538.731,0.0
52458.0,STARLINK-3898,PAYLOAD,2023-07-26 09:20:34,15.08838697,7.06e-05,53.2176,46.6115,96.2287,263.8786,2.7135e-05,1.44e-06,0.0,0 STARLINK-3898,1 52458U 22049H   23207.38928829  .00000144  00000-0  27135-4 0  9995,2 52458  53.2176  46.6115 0000706  96.2287 263.8786 15.08838697 67592,6917.884,95.438,540.238,539.261,0.0
52458.0,STARLINK-3898,PAYLOAD,2023-07-26 20:28:16,15.08850424,8.56e-05,53.2175,44.5297,85.4694,274.6396,-3.0398e-05,-7.72e-06,0.0,0 STARLINK-3898,1 52458U 22049H   23207.85296400 -.00000772  00000-0 -30398-4 0  9994,2 52458  53.2175  44.5297 0000856  85.4694 274.6396 15.08850424 67664,6917.849,95.437,540.306,539.121,0.0
52458.0,STARLINK-3898,PAYLOAD,2023-07-27 06:00:35,15.08838418,8.5e-05,53.2178,42.7465,75.1904,284.9182,0.00010896,1.447e-05,0.0,0 STARLINK-3898,1 52458U 22049H   23208.25040658  .00001447  00000-0  10896-3 0  9999,2 52458  53.2178  42.7465 0000850  75.1904 284.9182 15.08838418 67888,6917.885,95.438,540.338,539.162,0.0
52458.0,STARLINK-3898,PAYLOAD,2023-07-27 15:32:55,15.08822761,9.11e-05,53.2178,40.9618,75.4987,284.6107,-8.1562e-05,-1.585e-05,0.0,0 STARLINK-3898,1 52458U 22049H   23208.64786487 -.00001585  00000-0 -81562-4 0  9993,2 52458  53.2178  40.9618 0000911  75.4987 284.6107 15.08822761 67945,6917.933,95.439,540.428,539.168,0.0
52458.0,STARLINK-3898,PAYLOAD,2023-07-27 21:54:28,15.08817811,0.0001513,53.2169,39.7657,80.044,280.0723,0.00013244,1.819e-05,0.0,0 STARLINK-3898,1 52458U 22049H   23208.91282604  .00001819  00000-0  13244-3 0  9994,2 52458  53.2169  39.7657 0001513  80.0440 280.0723 15.08817811 67820,6917.948,95.439,540.86,538.767,0.0
52458.0,STARLINK-3898,PAYLOAD,2023-07-28 15:23:41,15.08840815,0.0001927,53.2172,36.494,92.4232,267.698,8.4918e-05,1.064e-05,0.0,0 STARLINK-3898,1 52458U 22049H   23209.64145413  .00001064  00000-0  84918-4 0  9990,2 52458  53.2172  36.4940 0001927  92.4232 267.6980 15.08840815 68094,6917.878,95.438,541.076,538.41,0.0
52458.0,STARLINK-3898,PAYLOAD,2023-07-29 18:25:14,15.08840258,0.0001331,53.2175,31.4453,66.7695,293.3437,0.00011777,1.587e-05,0.0,0 STARLINK-3898,1 52458U 22049H   23210.76753388  .00001587  00000-0  11777-3 0  9993,2 52458  53.2175  31.4453 0001331  66.7695 293.3437 15.08840258 68260,6917.88,95.438,540.665,538.824,0.0
52458.0,STARLINK-3898,PAYLOAD,2023-07-30 18:16:01,15.08852221,8.22e-05,53.2175,26.9843,97.8812,262.2273,4.1129e-05,3.67e-06,0.0,0 STARLINK-3898,1 52458U 22049H   23211.76112488  .00000367  00000-0  41129-4 0  9994,2 52458  53.2175  26.9843 0000822  97.8812 262.2273 15.08852221 68415,6917.843,95.437,540.277,539.139,0.0
52458.0,STARLINK-3898,PAYLOAD,2023-07-31 16:31:25,15.08837582,9.97e-05,53.2179,22.822,83.1608,276.9498,2.908e-05,1.75e-06,0.0,0 STARLINK-3898,1 52458U 22049H   23212.68849472  .00000175  00000-0  29080-4 0  9995,2 52458  53.2179  22.8220 0000997  83.1608 276.9498 15.08837582 68556,6917.888,95.438,540.442,539.063,0.0
52458.0,STARLINK-3898,PAYLOAD,2023-08-01 17:57:35,15.08839723,0.0001005,53.2179,18.0631,90.758,269.3528,3.5769e-05,2.82e-06,0.0,0 STARLINK-3898,1 52458U 22049H   23213.74833323  .00000282  00000-0  35769-4 0  9991,2 52458  53.2179  18.0631 0001005  90.7580 269.3528 15.08839723 68710,6917.881,95.438,540.441,539.051,0.0
52458.0,STARLINK-3898,PAYLOAD,2023-08-02 17:48:23,15.0881975,0.0001126,53.2181,13.604,86.8231,273.289,0.00044528,6.802e-05,0.0,0 STARLINK-3898,1 52458U 22049H   23214.74193483  .00006802  00000-0  44528-3 0  9994,2 52458  53.2181  13.6040 0001126  86.8231 273.2890 15.08819750 68861,6917.942,95.439,540.586,539.028,0.0
52458.0,STARLINK-3898,PAYLOAD,2023-08-04 04:46:53,15.08830924,9.5e-05,53.2182,7.0622,83.3185,276.7915,-7.0245e-06,-3.99e-06,0.0,0 STARLINK-3898,1 52458U 22049H   23216.19922456 -.00000399  00000-0 -70245-5 0  9999,2 52458  53.2182   7.0622 0000950  83.3185 276.7915 15.08830924 69086,6917.908,95.438,540.43,539.116,0.0
52458.0,STARLINK-3898,PAYLOAD,2023-08-04 17:29:57,15.08836304,9.6e-05,53.2181,4.6834,86.5029,273.6073,1.9237e-05,1.8e-07,0.0,0 STARLINK-3898,1 52458U 22049H   23216.72914287  .00000018  00000-0  19237-4 0  9990,2 52458  53.2181   4.6834 0000960  86.5029 273.6073 15.08836304 69164,6917.892,95.438,540.421,539.093,0.0
52458.0,STARLINK-3898,PAYLOAD,2023-08-05 17:20:43,15.08860086,0.0001066,53.2181,0.2227,77.5869,282.5242,0.00022307,3.266e-05,0.0,0 STARLINK-3898,1 52458U 22049H   23217.72272123  .00003266  00000-0  22307-3 0  9996,2 52458  53.2181   0.2227 0001066  77.5869 282.5242 15.08860086 69310,6917.819,95.436,540.421,538.947,0.0
52458.0,STARLINK-3898,PAYLOAD,2023-08-06 09:14:37,15.08823535,0.0001066,53.2184,357.2484,102.8643,257.2468,-2.7401e-06,-3.31e-06,0.0,0 STARLINK-3898,1 52458U 22049H   23218.38515322 -.00000331  00000-0 -27401-5 0  9994,2 52458  53.2184 357.2484 0001066 102.8643 257.2468 15.08823535 69413,6917.931,95.439,540.533,539.058,0.0
52458.0,STARLINK-3898,PAYLOAD,2023-08-07 09:05:24,15.0883413,9.47e-05,53.2198,352.7858,123.6614,236.4468,-5.419e-05,-1.15e-05,0.0,0 STARLINK-3898,1 52458U 22049H   23219.37875661 -.00001150  00000-0 -54190-4 0  9993,2 52458  53.2198 352.7858 0000947 123.6614 236.4468 15.08834130 69567,6917.898,95.438,540.418,539.108,0.0
